KUIPER-00082
1 64828U 25151N   26102.40338580  .00001847  00000+0  27114-3 0  9991
2 64828  51.9001 139.0234 0000518  92.1109 267.9913 14.79946508 40479
KUIPER-00083
1 64829U 25151P   26102.52979137 -.00014039  00000+0 -18178-2 0  9992
2 64829  51.9054 145.9457 0000824  84.5615 275.5441 14.79899420 41571
KUIPER-00084
1 64830U 25151Q   26102.51951703  .00001855  00000+0  27251-3 0  9995
2 64830  51.9000 155.9819 0000583  77.2056 282.8971 14.79903526 40242
KUIPER-00085
1 64831U 25151R   26102.50470683  .00001833  00000+0  26931-3 0  9998
2 64831  51.9020 138.6082 0000617 100.1613 259.9419 14.79944940 40481
KUIPER-00086
1 64832U 25151S   26102.42642919  .00001292  00000+0  19853-3 0  9997
2 64832  51.9005 148.9190 0000714  65.1502 294.9535 14.79926997 40338
KUIPER-00087
1 64833U 25151T   26102.44525829  .00001781  00000+0  26254-3 0  9996
2 64833  51.8981 131.3108 0000750  81.8067 278.2981 14.79928076 40573
KUIPER-00089
1 64834U 25151U   26102.37230904 -.00004726  00000+0 -59144-3 0  9994
2 64834  51.9009 136.6469 0000807  93.1432 266.9623 14.79923489 40502
KUIPER-00090
1 64835U 25151V   26102.51549269  .00001795  00000+0  26436-3 0  9997
2 64835  51.8974 128.5385 0000816  63.8256 296.2790 14.79932047 40622
KUIPER-00091
1 64836U 25151W   26102.37502716  .00001873  00000+0  27475-3 0  9999
2 64836  51.8999 134.1446 0000569  87.5429 272.5598 14.79922560 40533
KUIPER-00092
1 64837U 25151X   26102.50199763  .00001820  00000+0  26771-3 0  9999
2 64837  51.8994 141.0795 0000683  63.3315 296.7717 14.79937179 41664
KUIPER-00093
1 64838U 25151Y   26102.49920671  .00001768  00000+0  26066-3 0  9996
2 64838  51.8990 143.5705 0000632  75.0714 285.0318 14.79968638 40410
KUIPER-00094
1 64839U 25151Z   26102.38955189  .00003522  00000+0  26716-3 0  9999
2 64839  51.8885 107.4691 0007153  51.9139 308.2478 15.04642662 40911
KUIPER-00081
1 65132U 25171A   26102.41931448  .00002615  00000+0  37175-3 0  9997
2 65132  51.9019 358.9208 0000901 107.9983 252.1078 14.79955035 38033
KUIPER-00088
1 65133U 25171B   26102.46799701 -.00001656  00000+0 -18831-3 0  9991
2 65133  51.9031  16.2103 0000372 120.5464 239.5535 14.79925196 37797
KUIPER-00095
1 65134U 25171C   26102.42206060  .00002644  00000+0  37572-3 0  9998
2 65134  51.9001 356.4785 0000858 106.5406 253.5651 14.79935981 38068
KUIPER-00096
1 65135U 25171D   26102.44228760 -.00003220  00000+0 -39361-3 0  9993
2 65135  51.9008   8.8251 0000790  94.3423 265.7629 14.79927607 37896
KUIPER-00097
1 65136U 25171E   26102.43961191 -.00003456  00000+0 -42463-3 0  9993
2 65136  51.9034  11.4733 0000899  97.7099 262.3966 14.79926958 37847
KUIPER-00098
1 65137U 25171F   26102.03174998  .00002842  00000+0  40152-3 0  9990
2 65137  51.9014  15.6513 0000955  81.7640 278.3431 14.79943014 37101
KUIPER-00099
1 65138U 25171G   26102.41395119  .00000537  00000+0  99450-4 0  9998
2 65138  51.9038   3.9511 0000911  96.7783 263.3283 14.79932704 37958
KUIPER-00100
1 65139U 25171H   26102.45049249  .00002678  00000+0  38049-3 0  9997
2 65139  51.9034   1.2682 0000678 108.7409 251.3627 14.79890720 37998
KUIPER-00102
1 65140U 25171J   26102.44770912 -.00002918  00000+0 -35397-3 0  9998
2 65140  51.8984   3.7959 0000768 101.3588 258.7461 14.79924876 37957
KUIPER-00103
1 65141U 25171K   26102.46259603  .00000740  00000+0  12607-3 0  9998
2 65141  51.8997  21.2174 0000675  87.7009 272.4031 14.79936136 37710
KUIPER-00104
1 65142U 25171L   26102.47605007  .00003105  00000+0  43590-3 0  9996
2 65142  51.9036   8.6348 0000735  89.5582 270.5464 14.79950259 37891
KUIPER-00105
1 65143U 25171M   26102.16420390  .00002688  00000+0  38034-3 0  9995
2 65143  51.9018  17.6300 0000460  97.6332 262.4683 14.80058605 37741
KUIPER-00106
1 65144U 25171N   26102.41741948  .00003074  00000+0  28323-3 0  9999
2 65144  51.8949   1.6983 0007040 208.6830 151.3754 14.97445655 37997
KUIPER-00107
1 65145U 25171P   26101.98039890 -.00000908  00000+0 -90156-4 0  9996
2 65145  51.9033   0.8845 0000682 104.4814 255.6224 14.79926081 37965
KUIPER-00108
1 65146U 25171Q   26102.47337801  .00002826  00000+0  39938-3 0  9994
2 65146  51.9043  11.2236 0000905 102.9541 257.1522 14.79952728 37869
KUIPER-00109
1 65147U 25171R   26102.44500491 -.00000190  00000+0  40503-5 0  9994
2 65147  51.9039   6.2898 0000988  94.2545 265.8530 14.79933515 37926
KUIPER-00110
1 65148U 25171S   26102.46530001 -.00008064  00000+0 -10301-2 0  9996
2 65148  51.9007  18.7795 0000390 136.5082 223.5911 14.79933177 37747
KUIPER-00111
1 65149U 25171T   26102.49365001  .00002691  00000+0  38194-3 0  9995
2 65149  51.8982  23.5564 0000865  93.1851 266.9210 14.79929300 37685
KUIPER-00112
1 65150U 25171U   26102.14113727 -.00001849  00000+0 -21360-3 0  9998
2 65150  51.9030   7.6871 0000915 116.6502 243.4555 14.79929014 37871
KUIPER-00114
1 65151U 25171V   26102.49095512  .00000575  00000+0  10449-3 0  9997
2 65151  51.9003  26.1306 0001934  81.5501 278.5681 14.79947184 37644
KUIPER-00115
1 65152U 25171W   26102.49905810  .00002895  00000+0  40837-3 0  9990
2 65152  51.9023  18.5867 0000600  93.5905 266.5126 14.79950243 37757
KUIPER-00116
1 65153U 25171X   26102.18971986  .00002988  00000+0  42039-3 0  9993
2 65153  51.9017  24.9908 0000990  67.4369 292.6698 14.79973196 37637
KUIPER-00118
1 65154U 25171Y   26102.52473477  .00002759  00000+0  39075-3 0  9996
2 65154  51.9010  25.9663 0000914  95.3167 264.7900 14.79940509 37652
KUIPER-00119
1 65155U 25171Z   26102.46879257  .00002801  00000+0  39416-3 0  9993
2 65155  51.9020  13.7801 0000895 107.9622 252.1438 14.80163657 37815
KUIPER-00120
1 65762U 25217A   26101.82961371  .00002777  00000+0  39304-3 0  9994
2 65762  51.8998 266.5209 0000589 108.3091 251.7935 14.79946303 29641
KUIPER-00132
1 65763U 25217B   26102.54843595  .00038973  00000+0  93143-3 0  9990
2 65763  51.8577 198.9667 0006269  80.6794 279.4903 15.41097148 30642
KUIPER-00133
1 65764U 25217C   26101.86339495  .00002913  00000+0  41079-3 0  9990
2 65764  51.9036 266.4385 0001456 124.5807 235.5293 14.79946757 29651
KUIPER-00139
1 65765U 25217D   26102.37553464  .00004986  00000+0  39406-3 0  9995
2 65765  51.8831 239.5475 0008542  61.7281 298.4552 15.02220884 30073
KUIPER-00142
1 65766U 25217E   26101.44333146  .00002979  00000+0  41968-3 0  9992
2 65766  51.8987 250.7526 0000680 107.5438 252.5599 14.79920688 29832
KUIPER-00145
1 65767U 25217F   26101.84581141 -.00000967  00000+0 -97915-4 0  9998
2 65767  51.8981 251.4881 0000429 102.2723 257.8287 14.79927067 29851
KUIPER-00147
1 65768U 25217G   26102.14697505  .00001769  00000+0  26085-3 0  9993
2 65768  51.8989 252.6489 0000556 134.7312 225.3696 14.79945226 29864
KUIPER-00148
1 65769U 25217H   26102.50001156 -.00030181  00000+0 -42900-2 0  9990
2 65769  51.9030 231.1069 0003086 122.2390  44.2309 14.76418751  6092
KUIPER-00150
1 65770U 25217J   26102.47390826  .00002332  00000+0  33496-3 0  9999
2 65770  51.9012 261.2170 0000736 110.2356 249.8685 14.79919810 29774
KUIPER-00151
1 65771U 25217K   26102.41441676  .00002611  00000+0  37165-3 0  9991
2 65771  51.9007 253.9760 0000586 113.3122 246.7902 14.79904957 29875
KUIPER-00152
1 65772U 25217L   26102.12402511  .00002840  00000+0  40156-3 0  9993
2 65772  51.8997 242.7505 0000485 117.7497 242.3515 14.79918353 30001
KUIPER-00153
1 65773U 25217M   26102.32956110  .00001779  00000+0  28398-3 0  9999
2 65773  51.9019 236.1796 0000956 140.3673 219.7358 14.76440900 30118
KUIPER-00155
1 65774U 25217N   26102.50001156 -.00019288  00000+0 -83442-3 0  9998
2 65774  51.8812 211.5065 0005977  50.3500 220.8789 15.21444834  5879
KUIPER-00156
1 65775U 25217P   26102.36576236  .00002703  00000+0  38371-3 0  9992
2 65775  51.9020 236.7197 0000739  73.2987 286.8056 14.79907325 30105
KUIPER-00158
1 65776U 25217Q   26102.41578873  .00002756  00000+0  38150-3 0  9991
2 65776  51.8957 256.1205 0001166 133.7811 226.3249 14.80927110 29841
KUIPER-00163
1 65777U 25217R   26102.50001156  .00044665  00000+0  51039-3 0  9993
2 65777  51.9005 243.8276 0001570   6.5326 178.3482 15.61722864  6002
KUIPER-00165
1 65778U 25217S   26102.42252880 -.00000794  00000+0 -75122-4 0  9994
2 65778  51.9010 246.4328 0000558 109.2842 250.8180 14.79928410 29970
KUIPER-00166
1 65779U 25217T   26101.65940495  .00003343  00000+0  46739-3 0  9997
2 65779  51.9004 237.3369 0000524  98.3301 261.7721 14.79927661 30037
KUIPER-00167
1 65780U 25217U   26102.41174485  .00002619  00000+0  37245-3 0  9999
2 65780  51.8948 256.4314 0000719 109.5471 250.5569 14.79931512 29838
KUIPER-00168
1 65781U 25217V   26102.36306323  .00001040  00000+0  16539-3 0  9992
2 65781  51.8997 239.1989 0000601  96.7064 263.3967 14.79925565 30077
KUIPER-00169
1 65782U 25217W   26102.42523111  .00002600  00000+0  36991-3 0  9993
2 65782  51.9012 243.9290 0000688 106.5747 253.5291 14.79926798 30012
KUIPER-00170
1 65783U 25217X   26102.14971374  .00002642  00000+0  37546-3 0  9994
2 65783  51.8988 250.1255 0000623 107.6530 252.4501 14.79929611 29901
KUIPER-00172
1 65785U 25217Z   26102.50271824  .00001422  00000+0  23210-3 0  9997
2 65785  51.8977 230.0167 0002172  83.9706 276.1502 14.76652720 30213
KUIPER-00173
1 65786U 25217AA  26102.50001156 -.00022695  00000+0 -29832-2 0  9999
2 65786  51.8996 243.6024 0000905 121.1056  96.1361 14.79577704  2721
KUIPER-00174
1 65787U 25217AB  26101.85668531  .00003045  00000+0  42824-3 0  9996
2 65787  51.9008 241.4729 0000447  87.5410 272.5604 14.79932525 29999
KUIPER-00176
1 65788U 25217AC  26102.44818954  .00002719  00000+0  38561-3 0  9999
2 65788  51.8996 253.8188 0000724 109.5103 250.5938 14.79920385 29877
KUIPER-00101
1 65947U 25228A   26102.46027675  .00002685  00000+0  38115-3 0  9999
2 65947  51.8982 211.2381 0000467  90.4498 269.6518 14.79924446 28237
KUIPER-00113
1 65948U 25228B   26102.43189934 -.00001784  00000+0 -20518-3 0  9993
2 65948  51.8994 206.3827 0000562 106.4412 253.6612 14.79921834 28293
KUIPER-00117
1 65949U 25228C   26102.46288162  .00002861  00000+0  40440-3 0  9991
2 65949  51.8980 208.7453 0000601  90.8215 269.2816 14.79906649 28264
